"spkid","full_name","pdes","name","prefix","neo","pha","sats","H","G","M1","M2","K1","K2","PC","diameter","extent","albedo","rot_per","GM","BV","UB","IR","spec_B","spec_T","H_sigma","diameter_sigma","orbit_id","epoch","epoch_mjd","epoch_cal","equinox","e","a","q","i","om","w","ma","ad","n","tp","tp_cal","per","per_y","moid","moid_ld","moid_jup","t_jup","sigma_e","sigma_a","sigma_q","sigma_i","sigma_om","sigma_w","sigma_ma","sigma_ad","sigma_n","sigma_tp","sigma_per","class","producer","data_arc","first_obs","last_obs","n_obs_used","n_del_obs_used","n_dop_obs_used","condition_code","rms","two_body","A1","A1_sigma","A2","A2_sigma","A3","A3_sigma","DT","DT_sigma"
20003982,"  3982 Kastel' (1984 JP1)",3982,Kastel',,N,N,1,13.01,,,,,,,6.790,,0.201,8.488,,,,,,,,0.36,"JPL 96",2460800.5,60800,2025-05-05.0,J2000,0.2197,2.259,1.763,5.30,251.83,50.85,323.48,2.76,0.2903,2460926.28,2025-09-07.7,1.24e+03,3.39,0.753,293,2.48,3.58,5.3e-10,5.6e-10,1.3e-09,5.7e-08,5.1e-07,6.0e-07,4.2e-07,6.8e-10,1.1e-10,1.5e-06,4.6e-07,MBA,"Otto Matic",34623,1930-06-23,2025-04-08,5141,,,0,.40537,,,,,,,,,
20004029,"  4029 Bridges (1982 KC1)",4029,Bridges,,N,N,1,12.87,,,,,,,7.433,,0.265,3.5746,,,,,,,,0.12,"JPL 66",2460800.5,60800,2025-05-05.0,J2000,0.1294,2.527,2.200,5.43,214.69,17.49,254.32,2.85,0.2453,2461231.35,2026-07-09.8,1.47e+03,4.02,1.19,463,2.13,3.44,4.4e-10,4.5e-10,1.1e-09,2.9e-08,2.1e-07,2.9e-07,2.3e-07,5.1e-10,6.6e-11,9.9e-07,3.9e-07,MBA,"Otto Matic",18611,1974-04-24,2025-04-07,7056,,,0,.35204,,,,,,,,,
20004092,"  4092 Tyr (1986 TJ4)",4092,Tyr,,N,N,1,13.29,,,,,,,,,,16.091,,,,,,,,,"JPL 61",2460800.5,60800,2025-05-05.0,J2000,0.2500,2.631,1.974,4.03,253.77,108.95,17.03,3.29,0.2309,2460726.75,2025-02-20.2,1.56e+03,4.27,0.975,380,2.2,3.35,7.4e-10,1.0e-09,1.7e-09,2.9e-08,3.3e-07,3.8e-07,5.1e-07,1.3e-09,1.3e-10,2.2e-06,9.0e-07,MBA,"Otto Matic",10124,1997-04-05,2024-12-23,4602,,,0,.46214,,,,,,,,,
20004272,"  4272 Entsuji (1977 EG5)",4272,Entsuji,,N,N,1,12.93,,,,,,,7.675,,0.119,2.8087,,,,,S,,,0.17,"JPL 64",2460800.5,60800,2025-05-05.0,J2000,0.2489,2.368,1.779,9.27,184.37,183.90,231.81,2.96,0.2704,2461274.60,2026-08-22.0,1.33e+03,3.65,0.778,303,2.5,3.49,8.0e-10,4.1e-10,1.8e-09,4.0e-08,2.8e-07,3.1e-07,2.8e-07,5.1e-10,7.0e-11,1.1e-06,3.5e-07,MBA,"Otto Matic",26063,1953-11-03,2025-03-13,4438,,,0,.43013,,,,,,,,,
20004288,"  4288 Tokyotech (1989 TQ1)",4288,Tokyotech,,N,N,1,11.67,,,,,,,12.296,,0.223,3.18,,,,,,,,0.09,"JPL 61",2460800.5,60800,2025-05-05.0,J2000,0.1777,2.627,2.160,14.03,44.55,325.20,130.03,3.09,0.2315,2460238.72,2023-10-21.2,1.56e+03,4.26,1.18,458,2.4,3.34,4.5e-10,4.7e-10,1.3e-09,5.9e-08,2.0e-07,3.0e-07,2.3e-07,5.6e-10,6.3e-11,9.1e-07,4.2e-07,MBA,"Otto Matic",23901,1959-09-30,2025-03-08,4741,,,0,.32609,,,,,,,,,
20004296,"  4296 van Woerkom (1935 SA2)",4296,"van Woerkom",,N,N,1,13.35,,,,,,,,,,2.80868,,,,,,,,,"JPL 61",2460800.5,60800,2025-05-05.0,J2000,0.1655,2.249,1.877,6.14,13.02,27.00,184.02,2.62,0.2922,2461402.67,2026-12-28.1,1.23e+03,3.37,0.886,345,2.81,3.6,7.8e-10,4.0e-10,1.9e-09,4.5e-08,3.1e-07,3.2e-07,2.5e-07,4.6e-10,7.8e-11,9.9e-07,3.3e-07,MBA,"Otto Matic",32674,1935-09-28,2025-03-13,4177,,,0,.41091,,,,,,,,,
20004362,"  4362 Carlisle (1978 PR4)",4362,Carlisle,,N,N,1,13.21,,,,,,,5.590,,0.391,2.63289,,,,,,,,0.17,"JPL 67",2460800.5,60800,2025-05-05.0,J2000,0.1022,2.238,2.010,4.71,34.35,172.76,73.91,2.47,0.2943,2460549.37,2024-08-26.8,1.22e+03,3.35,1,391,2.49,3.62,4.3e-10,3.0e-10,1.0e-09,2.9e-08,3.0e-07,4.5e-07,4.0e-07,3.3e-10,5.9e-11,1.4e-06,2.4e-07,MBA,"Otto Matic",26467,1952-09-22,2025-03-10,4560,,,0,.43368,,,,,,,,,
20004370,"  4370 Dickens (1982 SL)",4370,Dickens,,N,N,1,14.55,,,,,,,3.775,,0.196,2.76012,,,,,,,,0.20,"JPL 52",2460800.5,60800,2025-05-05.0,J2000,0.1993,2.196,1.759,2.56,218.30,153.43,24.39,2.63,0.3028,2460719.96,2025-02-13.4,1.19e+03,3.26,0.759,295,2.83,3.64,1.0e-09,6.2e-10,2.5e-09,3.5e-08,5.9e-07,6.2e-07,2.5e-07,7.4e-10,1.3e-10,8.1e-07,5.0e-07,MBA,"Otto Matic",26964,1951-02-04,2024-12-01,5631,,,0,.42504,,,,,,,,,
20004383,"  4383 Suruga (1989 XP)",4383,Suruga,,N,N,1,13.08,,,,,,,6.471,,0.320,3.4069,,,,,,,,0.09,"JPL 64",2460800.5,60800,2025-05-05.0,J2000,0.0638,2.424,2.270,7.16,88.44,317.29,162.32,2.58,0.2611,2460178.81,2023-08-22.3,1.38e+03,3.78,1.29,500,2.66,3.5,4.4e-10,3.5e-10,1.1e-09,2.5e-08,2.8e-07,4.6e-07,4.2e-07,3.7e-10,5.6e-11,1.6e-06,3.0e-07,MBA,"Otto Matic",16850,1979-01-24,2025-03-13,4470,,,0,.41895,,,,,,,,,
20004411,"  4411 Kochibunkyo (1990 AF)",4411,Kochibunkyo,,N,N,1,14.10,,,,,,,4.433,,0.271,2.69614,,,,,,,,0.41,"JPL 57",2460800.5,60800,2025-05-05.0,J2000,0.0925,2.167,1.967,2.26,88.43,10.50,40.42,2.37,0.309,2460669.70,2024-12-25.1,1.17e+03,3.19,0.983,383,2.74,3.69,4.3e-10,3.3e-10,8.2e-10,2.4e-08,1.6e-06,1.7e-06,6.8e-07,3.7e-10,7.2e-11,2.2e-06,2.7e-07,MBA,"Otto Matic",18733,1973-12-25,2025-04-09,5938,,,0,.37275,,,,,,,,,
20004435,"  4435 Holt (1983 AG2)",4435,Holt,,N,N,1,13.39,,,,,,,5.042,,0.350,2.867,,,,,S,,,1.03,"JPL 58",2460800.5,60800,2025-05-05.0,J2000,0.3349,2.317,1.541,21.94,330.72,110.54,21.18,3.09,0.2795,2460724.73,2025-02-18.2,1.29e+03,3.53,0.679,264,2.43,3.41,6.7e-10,4.3e-10,1.7e-09,3.6e-08,1.1e-07,1.4e-07,2.6e-07,5.7e-10,7.7e-11,9.2e-07,3.5e-07,MCA,"Otto Matic",17046,1978-08-08,2025-04-09,10603,,,0,.23469,,,,,,,,,
20004440,"  4440 Tchantches (1984 YV)",4440,Tchantches,,N,N,1,13.87,,,,,,,2.093,,1.000,2.7883,,,,,,,,0.59,"JPL 56",2460800.5,60800,2025-05-05.0,J2000,0.0770,1.921,1.773,21.35,283.29,224.95,16.94,2.07,0.3702,2460754.73,2025-03-20.2,972,2.66,0.816,317,3.08,3.84,1.1e-09,4.8e-10,2.5e-09,4.4e-08,1.1e-07,4.2e-07,7.0e-07,5.2e-10,1.4e-10,1.9e-06,3.7e-07,IMB,"Otto Matic",14690,1984-12-23,2025-03-13,3855,,,0,.38798,,,,,,,,,
20004492,"  4492 Debussy (1988 SH)",4492,Debussy,,N,N,1,13.22,,,,,,,17.359,,0.040,26.606,,,,,,,,0.70,"JPL 92",2460800.5,60800,2025-05-05.0,J2000,0.1770,2.768,2.278,8.02,349.69,53.93,314.42,3.26,0.2141,2461013.41,2025-12-03.9,1.68e+03,4.6,1.3,504,2.23,3.3,6.8e-10,1.3e-09,1.4e-09,4.1e-08,3.0e-07,3.8e-07,6.3e-07,1.5e-09,1.5e-10,3.1e-06,1.2e-06,MBA,"Otto Matic",26697,1951-08-06,2024-09-08,8145,,,0,.31096,,,,,,,,,
20004494,"  4494 Marimo (1988 TK1)",4494,Marimo,,N,N,1,13.65,,,,,,,,,,4.1209,,,,,,,,,"JPL 58",2460800.5,60800,2025-05-05.0,J2000,0.1200,2.344,2.062,2.47,294.26,216.29,308.36,2.63,0.2747,2460988.48,2025-11-08.9,1.31e+03,3.59,1.07,418,2.38,3.55,4.8e-10,3.8e-10,9.9e-10,2.9e-08,8.9e-07,9.6e-07,3.8e-07,4.3e-10,6.7e-11,1.4e-06,3.2e-07,MBA,"Otto Matic",19328,1972-04-09,2025-03-10,5324,,,0,.40216,,,,,,,,,
20004514,"  4514 Vilen (1972 HX)",4514,Vilen,,N,N,1,14.10,,,,,,,,,,2.89224,,,,,,,,,"JPL 56",2460800.5,60800,2025-05-05.0,J2000,0.1511,2.346,1.991,7.97,110.28,88.55,295.29,2.70,0.2744,2461036.35,2025-12-26.8,1.31e+03,3.59,1.01,392,2.29,3.53,3.9e-10,3.7e-10,8.1e-10,4.7e-08,1.4e-07,2.6e-07,3.2e-07,4.2e-10,6.5e-11,1.2e-06,3.1e-07,MBA,"Otto Matic",19338,1972-04-19,2025-03-30,9731,,,0,.29838,,,,,,,,,
20004528,"  4528 Berg (1983 PP)",4528,Berg,,N,N,1,12.51,,,,,,,9.356,,0.292,3.563,,,,,,,,0.12,"JPL 66",2460800.5,60800,2025-05-05.0,J2000,0.1373,2.551,2.200,8.71,161.32,315.97,317.28,2.90,0.242,2460977.06,2025-10-28.5,1.49e+03,4.07,1.22,477,2.2,3.41,5.8e-10,6.0e-10,1.3e-09,3.5e-08,2.6e-07,3.3e-07,3.5e-07,6.9e-10,8.6e-11,1.5e-06,5.3e-07,MBA,"Otto Matic",21907,1965-02-28,2025-02-20,13210,,,0,.22518,,,,,,,,,
20004541,"  4541 Mizuno (1989 AF)",4541,Mizuno,,N,N,1,13.18,,,,,,,6.294,,0.338,2.82784,,,,,,,,0.47,"JPL 62",2460800.5,60800,2025-05-05.0,J2000,0.0208,2.38,2.330,4.78,65.93,26.03,340.18,2.43,0.2685,2460874.30,2025-07-17.8,1.34e+03,3.67,1.35,524,2.59,3.53,8.1e-10,9.2e-10,1.5e-09,5.8e-08,6.5e-07,2.0e-06,1.8e-06,9.4e-10,1.6e-10,6.7e-06,7.8e-07,MBA,"Otto Matic",34793,1929-11-27,2025-03-01,10067,,,0,.28582,,,,,,,,,
20004607,"  4607 Seilandfarm (1987 WR)",4607,Seilandfarm,,N,N,1,13.40,,,,,,,7.389,,0.224,3.9683,,,,,L,,,0.12,"JPL 60",2460800.5,60800,2025-05-05.0,J2000,0.0200,2.264,2.219,2.25,250.41,221.80,313.96,2.31,0.2893,2460959.65,2025-10-11.1,1.24e+03,3.41,1.24,481,2.69,3.62,4.5e-10,3.6e-10,1.0e-09,2.5e-08,8.1e-07,2.0e-06,1.7e-06,3.7e-10,7.0e-11,5.8e-06,3.0e-07,MBA,"Otto Matic",18246,1975-03-15,2025-02-26,7009,,,0,.39891,,,,,,,,,
20004666,"  4666 Dietz (1986 JA1)",4666,Dietz,,N,N,2,13.12,,,,,,,6.827,,0.239,2.95242,,,,,,,,0.29,"JPL 51",2460800.5,60800,2025-05-05.0,J2000,0.2350,2.339,1.789,24.52,230.18,42.07,307.89,2.89,0.2755,2460989.64,2025-11-10.1,1.31e+03,3.58,0.824,321,2.26,3.41,3.0e-10,2.9e-10,8.2e-10,3.1e-08,5.9e-08,1.0e-07,2.1e-07,3.6e-10,5.2e-11,7.9e-07,2.5e-07,MBA,"Otto Matic",14188,1986-05-08,2025-03-12,6784,,,0,.32719,,,,,,,,,
20004674,"  4674 Pauling (1989 JC)",4674,Pauling,,N,N,1,13.97,,,,,,,4.818,,0.332,2.5306,,,,,,,,0.04,"JPL 79",2460800.5,60800,2025-05-05.0,J2000,0.0702,1.859,1.728,19.44,232.89,239.81,165.47,1.99,0.3889,2460375.00,2024-03-05.5,926,2.53,0.783,305,3.16,3.92,5.1e-10,5.6e-10,9.2e-10,3.5e-08,1.0e-07,8.6e-07,4.0e-07,6.0e-10,1.8e-10,1.2e-06,4.2e-07,IMB,"Otto Matic",14330,1985-12-15,2025-03-10,5603,,,0,.43028,,,,,,,,,
20004765,"  4765 Wasserburg (1986 JN1)",4765,Wasserburg,,N,N,1,13.97,,,,,,,1.777,,1.000,3.6231,,,,,,,,0.48,"JPL 52",2460800.5,60800,2025-05-05.0,J2000,0.0603,1.945,1.828,23.71,76.50,108.48,174.44,2.06,0.3633,2460320.34,2024-01-10.8,991,2.71,0.875,341,3.02,3.79,3.9e-10,1.5e-10,7.0e-10,4.4e-08,8.1e-08,4.8e-07,5.6e-07,1.6e-10,4.3e-11,1.5e-06,1.2e-07,IMB,"Otto Matic",15188,1983-03-13,2024-10-11,4021,,,0,.39386,,,,,,,,,
20004786,"  4786 Tatianina (1985 PE2)",4786,Tatianina,,N,N,1,13.44,,,,,,,3.282,,0.514,2.9227,,,,,Xc,,,0.20,"JPL 60",2460800.5,60800,2025-05-05.0,J2000,0.1953,2.357,1.897,7.25,115.70,118.31,71.70,2.82,0.2724,2460537.24,2024-08-14.7,1.32e+03,3.62,0.898,349,2.21,3.52,5.6e-10,4.0e-10,1.5e-09,4.0e-08,2.5e-07,2.7e-07,2.5e-07,4.8e-10,6.9e-11,8.6e-07,3.3e-07,MBA,"Otto Matic",19818,1970-05-31,2024-09-02,4958,,,0,.42986,,,,,,,,,
